{
  "type": "FeatureCollection",
  "features": [
    {
      "type": "Feature",
      "properties": {
        "norad_id": 36664,
        "name": "FENGYUN 1C DEB",
        "group": "fengyun-1c-debris",
        "lat": 8.557794506750787,
        "lon": 8.555748941315997,
        "alt_km": 843.448337225258,
        "timestamp": "2025-12-11T05:00:26.596943+00:00",
        "meta_object_name": "FENGYUN 1C DEB",
        "meta_object_id": "1999-025DYJ",
        "meta_epoch": "2025-12-10T08:38:38.230944",
        "meta_mean_motion": 14.17954932,
        "meta_eccentricity": 0.01735524,
        "meta_inclination": 98.6046,
        "meta_ra_of_asc_node": 9.0387,
        "meta_arg_of_pericenter": 106.5288,
        "meta_mean_anomaly": 255.5032,
        "meta_ephemeris_type": 0,
        "meta_classification_type": "U",
        "meta_norad_cat_id": 36664,
        "meta_element_set_no": 999,
        "meta_rev_at_epoch": 63717,
        "meta_bstar": 0.00011870964,
        "meta_mean_motion_dot": 2.4e-06,
        "meta_mean_motion_ddot": 0,
        "tle_line1": "1 36664U 99025DYJ 25344.36016471  .00000240  00000+0  11871-3 0  9992",
        "tle_line2": "2 36664  98.6046   9.0387 0173552 106.5288 255.5032 14.17954932637171"
      },
      "geometry": {
        "type": "Point",
        "coordinates": [
          8.555748941315997,
          8.557794506750787
        ]
      }
    },
    {
      "type": "Feature",
      "properties": {
        "norad_id": 36668,
        "name": "FENGYUN 1C DEB",
        "group": "fengyun-1c-debris",
        "lat": 12.571807718949863,
        "lon": -6.297732608612327,
        "alt_km": 871.4284058219437,
        "timestamp": "2025-12-11T05:00:26.596953+00:00",
        "meta_object_name": "FENGYUN 1C DEB",
        "meta_object_id": "1999-025DYN",
        "meta_epoch": "2025-12-09T19:00:53.395488",
        "meta_mean_motion": 14.15384059,
        "meta_eccentricity": 0.00512799,
        "meta_inclination": 98.61,
        "meta_ra_of_asc_node": 354.271,
        "meta_arg_of_pericenter": 234.389,
        "meta_mean_anomaly": 125.2501,
        "meta_ephemeris_type": 0,
        "meta_classification_type": "U",
        "meta_norad_cat_id": 36668,
        "meta_element_set_no": 999,
        "meta_rev_at_epoch": 57376,
        "meta_bstar": 0.00098876693,
        "meta_mean_motion_dot": 1.91e-05,
        "meta_mean_motion_ddot": 0,
        "tle_line1": "1 36668U 99025DYN 25343.79228467  .00001910  00000+0  98877-3 0  9998",
        "tle_line2": "2 36668  98.6100 354.2710 0051279 234.3890 125.2501 14.15384059573764"
      },
      "geometry": {
        "type": "Point",
        "coordinates": [
          -6.297732608612327,
          12.571807718949863
        ]
      }
    },
    {
      "type": "Feature",
      "properties": {
        "norad_id": 36676,
        "name": "FENGYUN 1C DEB",
        "group": "fengyun-1c-debris",
        "lat": -62.580813754359696,
        "lon": -98.04518217267727,
        "alt_km": 818.5883744064613,
        "timestamp": "2025-12-11T05:00:26.596963+00:00",
        "meta_object_name": "FENGYUN 1C DEB",
        "meta_object_id": "1999-025DYW",
        "meta_epoch": "2025-12-10T11:48:15.477120",
        "meta_mean_motion": 14.4319192,
        "meta_eccentricity": 0.00950444,
        "meta_inclination": 98.7673,
        "meta_ra_of_asc_node": 243.9112,
        "meta_arg_of_pericenter": 138.5457,
        "meta_mean_anomaly": 35.246,
        "meta_ephemeris_type": 0,
        "meta_classification_type": "U",
        "meta_norad_cat_id": 36676,
        "meta_element_set_no": 999,
        "meta_rev_at_epoch": 65033,
        "meta_bstar": 0.00060751063,
        "meta_mean_motion_dot": 2.108e-05,
        "meta_mean_motion_ddot": 0,
        "tle_line1": "1 36676U 99025DYW 25344.49184580  .00002108  00000+0  60751-3 0  9992",
        "tle_line2": "2 36676  98.7673 243.9112 0095044 138.5457  35.2460 14.43191920650338"
      },
      "geometry": {
        "type": "Point",
        "coordinates": [
          -98.04518217267727,
          -62.580813754359696
        ]
      }
    },
    {
      "type": "Feature",
      "properties": {
        "norad_id": 36678,
        "name": "FENGYUN 1C DEB",
        "group": "fengyun-1c-debris",
        "lat": -31.29251107713306,
        "lon": -27.290259578810243,
        "alt_km": 675.4884216425999,
        "timestamp": "2025-12-11T05:00:26.596973+00:00",
        "meta_object_name": "FENGYUN 1C DEB",
        "meta_object_id": "1999-025DYY",
        "meta_epoch": "2025-11-26T04:26:16.761408",
        "meta_mean_motion": 14.37944691,
        "meta_eccentricity": 0.01523469,
        "meta_inclination": 98.2901,
        "meta_ra_of_asc_node": 313.1233,
        "meta_arg_of_pericenter": 42.409,
        "meta_mean_anomaly": 318.8754,
        "meta_ephemeris_type": 0,
        "meta_classification_type": "U",
        "meta_norad_cat_id": 36678,
        "meta_element_set_no": 999,
        "meta_rev_at_epoch": 64751,
        "meta_bstar": 0.00045851479,
        "meta_mean_motion_dot": 1.539e-05,
        "meta_mean_motion_ddot": 0,
        "tle_line1": "1 36678U 99025DYY 25330.18491622  .00001539  00000+0  45851-3 0  9994",
        "tle_line2": "2 36678  98.2901 313.1233 0152346  42.4090 318.8754 14.37944691647514"
      },
      "geometry": {
        "type": "Point",
        "coordinates": [
          -27.290259578810243,
          -31.29251107713306
        ]
      }
    },
    {
      "type": "Feature",
      "properties": {
        "norad_id": 36679,
        "name": "FENGYUN 1C DEB",
        "group": "fengyun-1c-debris",
        "lat": -33.966266620449524,
        "lon": -12.610405018005402,
        "alt_km": 925.2897538820789,
        "timestamp": "2025-12-11T05:00:26.596983+00:00",
        "meta_object_name": "FENGYUN 1C DEB",
        "meta_object_id": "1999-025DYZ",
        "meta_epoch": "2025-12-02T05:45:43.795008",
        "meta_mean_motion": 14.04609463,
        "meta_eccentricity": 0.0085974,
        "meta_inclination": 98.8351,
        "meta_ra_of_asc_node": 332.6471,
        "meta_arg_of_pericenter": 122.6149,
        "meta_mean_anomaly": 238.3353,
        "meta_ephemeris_type": 0,
        "meta_classification_type": "U",
        "meta_norad_cat_id": 36679,
        "meta_element_set_no": 999,
        "meta_rev_at_epoch": 24401,
        "meta_bstar": 0.00048108,
        "meta_mean_motion_dot": 7.53e-06,
        "meta_mean_motion_ddot": 0,
        "tle_line1": "1 36679U 99025DYZ 25336.24009022  .00000753  00000+0  48108-3 0  9992",
        "tle_line2": "2 36679  98.8351 332.6471 0085974 122.6149 238.3353 14.04609463244016"
      },
      "geometry": {
        "type": "Point",
        "coordinates": [
          -12.610405018005402,
          -33.966266620449524
        ]
      }
    },
    {
      "type": "Feature",
      "properties": {
        "norad_id": 36680,
        "name": "FENGYUN 1C DEB",
        "group": "fengyun-1c-debris",
        "lat": -34.968142114441044,
        "lon": 151.34730053023316,
        "alt_km": 729.014854750907,
        "timestamp": "2025-12-11T05:00:26.596993+00:00",
        "meta_object_name": "FENGYUN 1C DEB",
        "meta_object_id": "1999-025DZA",
        "meta_epoch": "2025-12-08T10:42:54.314208",
        "meta_mean_motion": 14.18615718,
        "meta_eccentricity": 0.01884659,
        "meta_inclination": 98.5487,
        "meta_ra_of_asc_node": 334.7218,
        "meta_arg_of_pericenter": 261.8756,
        "meta_mean_anomaly": 256.1951,
        "meta_ephemeris_type": 0,
        "meta_classification_type": "U",
        "meta_norad_cat_id": 36680,
        "meta_element_set_no": 999,
        "meta_rev_at_epoch": 64236,
        "meta_bstar": 0.0009607999,
        "meta_mean_motion_dot": 2.329e-05,
        "meta_mean_motion_ddot": 0,
        "tle_line1": "1 36680U 99025DZA 25342.44646197  .00002329  00000+0  96080-3 0  9996",
        "tle_line2": "2 36680  98.5487 334.7218 0188465 261.8756 256.1951 14.18615718642363"
      },
      "geometry": {
        "type": "Point",
        "coordinates": [
          151.34730053023316,
          -34.968142114441044
        ]
      }
    },
    {
      "type": "Feature",
      "properties": {
        "norad_id": 36681,
        "name": "FENGYUN 1C DEB",
        "group": "fengyun-1c-debris",
        "lat": 73.87520053284737,
        "lon": -164.14874567172288,
        "alt_km": 862.3500587739236,
        "timestamp": "2025-12-11T05:00:26.597003+00:00",
        "meta_object_name": "FENGYUN 1C DEB",
        "meta_object_id": "1999-025DZB",
        "meta_epoch": "2025-12-10T18:18:12.275712",
        "meta_mean_motion": 14.10256093,
        "meta_eccentricity": 0.00454371,
        "meta_inclination": 98.6973,
        "meta_ra_of_asc_node": 343.4508,
        "meta_arg_of_pericenter": 355.1749,
        "meta_mean_anomaly": 4.8979,
        "meta_ephemeris_type": 0,
        "meta_classification_type": "U",
        "meta_norad_cat_id": 36681,
        "meta_element_set_no": 999,
        "meta_rev_at_epoch": 72730,
        "meta_bstar": 0.00096687905,
        "meta_mean_motion_dot": 1.688e-05,
        "meta_mean_motion_ddot": 0,
        "tle_line1": "1 36681U 99025DZB 25344.76264208  .00001688  00000+0  96688-3 0  9994",
        "tle_line2": "2 36681  98.6973 343.4508 0045437 355.1749   4.8979 14.10256093727309"
      },
      "geometry": {
        "type": "Point",
        "coordinates": [
          -164.14874567172288,
          73.87520053284737
        ]
      }
    }
  ]
}